[{"OBJECT_NAME":"UTMN 2 (RS27S)","OBJECT_ID":"2023-091AP","EPOCH":"2026-03-09T23:09:07.917408","MEAN_MOTION":15.29495965,"ECCENTRICITY":0.00097379,"INCLINATION":97.5194,"RA_OF_ASC_NODE":134.949,"ARG_OF_PERICENTER":76.0788,"MEAN_ANOMALY":284.1534,"EPHEMERIS_TYPE":0,"CLASSIFICATION_TYPE":"U","NORAD_CAT_ID":57203,"ELEMENT_SET_NO":999,"REV_AT_EPOCH":14936,"BSTAR":0.00056135701,"MEAN_MOTION_DOT":0.00016013,"MEAN_MOTION_DDOT":0},{"OBJECT_NAME":"STARLINK-30572","OBJECT_ID":"2023-161T","EPOCH":"2026-03-09T13:53:27.272832","MEAN_MOTION":15.30184285,"ECCENTRICITY":0.0001185,"INCLINATION":53.1607,"RA_OF_ASC_NODE":166.1148,"ARG_OF_PERICENTER":74.0449,"MEAN_ANOMALY":286.0682,"EPHEMERIS_TYPE":0,"CLASSIFICATION_TYPE":"U","NORAD_CAT_ID":58114,"ELEMENT_SET_NO":999,"REV_AT_EPOCH":13440,"BSTAR":2.5572e-5,"MEAN_MOTION_DOT":3.98e-6,"MEAN_MOTION_DDOT":0}]
